[{"OBJECT_NAME":"STARLINK-5187","OBJECT_ID":"2022-136Q","EPOCH":"2026-03-09T22:31:43.211712","MEAN_MOTION":15.08836526,"ECCENTRICITY":0.00011237,"INCLINATION":53.2194,"RA_OF_ASC_NODE":342.8557,"ARG_OF_PERICENTER":78.28,"MEAN_ANOMALY":281.8318,"EPHEMERIS_TYPE":0,"CLASSIFICATION_TYPE":"U","NORAD_CAT_ID":54065,"ELEMENT_SET_NO":999,"REV_AT_EPOCH":18688,"BSTAR":7.78517e-6,"MEAN_MOTION_DOT":-1.64e-6,"MEAN_MOTION_DDOT":0},{"OBJECT_NAME":"COSMOS 397 DEB","OBJECT_ID":"1971-015S","EPOCH":"2026-03-09T10:33:28.052064","MEAN_MOTION":14.09044081,"ECCENTRICITY":0.04582659,"INCLINATION":65.7053,"RA_OF_ASC_NODE":78.3879,"ARG_OF_PERICENTER":64.4346,"MEAN_ANOMALY":300.3365,"EPHEMERIS_TYPE":0,"CLASSIFICATION_TYPE":"U","NORAD_CAT_ID":5091,"ELEMENT_SET_NO":999,"REV_AT_EPOCH":68954,"BSTAR":0.0011725806,"MEAN_MOTION_DOT":5.343e-5,"MEAN_MOTION_DDOT":0}]
